NORAD_CAT_ID,OBJECT_NAME,OBJECT_TYPE,EPOCH,MEAN_MOTION,ECCENTRICITY,INCLINATION,RA_OF_ASC_NODE,ARG_OF_PERICENTER,MEAN_ANOMALY,BSTAR,MEAN_MOTION_DOT,MEAN_MOTION_DDOT,TLE_LINE0,TLE_LINE1,TLE_LINE2,SEMIMAJOR_AXIS,PERIOD,APOGEE,PERIGEE,DECAYED
51118.0,STARLINK-3394,PAYLOAD,2023-02-03 19:51:29,15.08836794,0.0001298,53.2178,321.2733,105.3877,254.7258,0.00014448,2.012e-05,0.0,0 STARLINK-3394,1 51118U 22005Q   23034.82742471  .00002012  00000-0  14448-3 0  9991,2 51118  53.2178 321.2733 0001298 105.3877 254.7258 15.08836794 59419,6917.89,95.438,540.653,538.857,0.0
51118.0,STARLINK-3394,PAYLOAD,2023-02-04 18:06:53,15.08844169,0.0001942,53.2177,317.1097,112.0054,248.1145,-0.00013867,-2.495e-05,0.0,0 STARLINK-3394,1 51118U 22005Q   23035.75478176 -.00002495  00000-0 -13867-3 0  9993,2 51118  53.2177 317.1097 0001942 112.0054 248.1145 15.08844169 58442,6917.868,95.437,541.076,538.389,0.0
51118.0,STARLINK-3394,PAYLOAD,2023-02-05 03:39:11,15.08850448,0.0001451,53.2174,315.3244,105.2649,254.8503,-5.1067e-05,-1.101e-05,0.0,0 STARLINK-3394,1 51118U 22005Q   23036.15222174 -.00001101  00000-0 -51067-4 0  9991,2 51118  53.2174 315.3244 0001451 105.2649 254.8503 15.08850448 59611,6917.848,95.437,540.717,538.71,0.0
51118.0,STARLINK-3394,PAYLOAD,2023-02-05 17:57:41,15.08767982,0.000157,53.2173,312.6492,81.6585,278.4585,0.00096687,0.00015103,0.0,0 STARLINK-3394,1 51118U 22005Q   23036.74840273  .00015103  00000-0  96687-3 0  9993,2 51118  53.2173 312.6492 0001570  81.6585 278.4585 15.08767982 59705,6918.101,95.442,541.052,538.879,0.0
51118.0,STARLINK-3394,PAYLOAD,2023-02-06 03:29:59,15.08842377,0.0001292,53.2173,310.8651,88.0245,272.0895,0.00012214,1.657e-05,0.0,0 STARLINK-3394,1 51118U 22005Q   23037.14582615  .00001657  00000-0  12214-3 0  9994,2 51118  53.2173 310.8651 0001292  88.0245 272.0895 15.08842377 59769,6917.873,95.437,540.632,538.844,0.0
51118.0,STARLINK-3394,PAYLOAD,2023-02-06 17:48:27,15.08843288,0.0001293,53.2168,308.1887,74.9347,285.1788,0.00013801,1.909e-05,0.0,0 STARLINK-3394,1 51118U 22005Q   23037.74198700  .00001909  00000-0  13801-3 0  9991,2 51118  53.2168 308.1887 0001293  74.9347 285.1788 15.08843288 58747,6917.87,95.437,540.63,538.841,0.0
51118.0,STARLINK-3394,PAYLOAD,2023-02-07 03:20:45,15.08858303,0.0001406,53.2161,306.4051,74.6963,285.4184,0.00037292,5.655e-05,0.0,0 STARLINK-3394,1 51118U 22005Q   23038.13941963  .00005655  00000-0  37292-3 0  9994,2 51118  53.2161 306.4051 0001406  74.6963 285.4184 15.08858303 59918,6917.824,95.436,540.662,538.717,0.0
51118.0,STARLINK-3394,PAYLOAD,2023-02-07 17:39:14,15.08848467,0.0001229,53.2163,303.728,90.4854,269.6279,9.5115e-05,1.227e-05,0.0,0 STARLINK-3394,1 51118U 22005Q   23038.73558098  .00001227  00000-0  95115-4 0  9993,2 51118  53.2163 303.7280 0001229  90.4854 269.6279 15.08848467 60003,6917.855,95.437,540.57,538.869,0.0
51118.0,STARLINK-3394,PAYLOAD,2023-02-07 20:50:00,15.08852147,0.0001207,53.2159,303.1333,96.267,263.8459,0.00013627,1.882e-05,0.0,0 STARLINK-3394,1 51118U 22005Q   23038.86805759  .00001882  00000-0  13627-3 0  9990,2 51118  53.2159 303.1333 0001207  96.2670 263.8459 15.08852147 58910,6917.843,95.437,540.543,538.873,0.0
51118.0,STARLINK-3394,PAYLOAD,2023-02-08 04:46:54,15.08875166,0.000138,53.216,301.6465,93.4373,266.6776,0.00046066,7.058e-05,0.0,0 STARLINK-3394,1 51118U 22005Q   23039.19924355  .00007058  00000-0  46066-3 0  9995,2 51118  53.2160 301.6465 0001380  93.4373 266.6776 15.08875166 60071,6917.773,95.435,540.593,538.683,0.0
51118.0,STARLINK-3394,PAYLOAD,2023-02-08 22:16:10,15.08832376,0.0001401,53.2168,298.3745,99.9477,260.1673,-0.00030146,-5.081e-05,0.0,0 STARLINK-3394,1 51118U 22005Q   23039.92790104 -.00005081  00000-0 -30146-3 0  9997,2 51118  53.2168 298.3745 0001401  99.9477 260.1673 15.08832376 59071,6917.904,95.438,540.738,538.799,0.0
51118.0,STARLINK-3394,PAYLOAD,2023-02-09 03:02:20,15.08837388,0.0001171,53.2163,297.4822,86.748,273.3646,1.6626e-05,-2.3e-07,0.0,0 STARLINK-3394,1 51118U 22005Q   23040.12662069 -.00000023  00000-0  16626-4 0  9997,2 51118  53.2163 297.4822 0001171  86.7480 273.3646 15.08837388 60216,6917.888,95.438,540.563,538.943,0.0
51118.0,STARLINK-3394,PAYLOAD,2023-02-09 12:34:39,15.08825917,0.0001092,53.2155,295.6996,102.3166,257.7948,-0.00012853,-2.332e-05,0.0,0 STARLINK-3394,1 51118U 22005Q   23040.52406381 -.00002332  00000-0 -12853-3 0  9997,2 51118  53.2155 295.6996 0001092 102.3166 257.7948 15.08825917 60279,6917.923,95.438,540.544,539.033,0.0
51118.0,STARLINK-3394,PAYLOAD,2023-02-09 20:31:35,15.08826622,0.0001115,53.2155,294.2129,105.2817,254.8298,0.0014243,0.00022444,0.0,0 STARLINK-3394,1 51118U 22005Q   23040.85527193  .00022444  00000-0  14243-2 0  9996,2 51118  53.2155 294.2129 0001115 105.2817 254.8298 15.08826622 59215,6917.921,95.438,540.558,539.015,0.0
51118.0,STARLINK-3394,PAYLOAD,2023-02-10 02:53:07,15.08860683,9.59e-05,53.2152,293.0237,102.8894,257.2205,0.0023259,0.00036944,0.0,0 STARLINK-3394,1 51118U 22005Q   23041.12022919  .00036944  00000-0  23259-2 0  9990,2 51118  53.2152 293.0237 0000959 102.8894 257.2205 15.08860683 59256,6917.817,95.436,540.346,539.019,0.0
51118.0,STARLINK-3394,PAYLOAD,2023-02-10 23:33:08,15.08863125,0.0001891,53.2159,289.155,83.4375,276.6832,0.0013732,0.00021648,0.0,0 STARLINK-3394,1 51118U 22005Q   23041.98135030  .00021648  00000-0  13732-2 0  9993,2 51118  53.2159 289.1550 0001891  83.4375 276.6832 15.08863125 60494,6917.81,95.436,540.983,538.367,0.0
51118.0,STARLINK-3394,PAYLOAD,2023-02-11 17:02:23,15.08842945,8.65e-05,53.2145,285.886,69.5994,290.5091,0.0023286,0.00036969,0.0,0 STARLINK-3394,1 51118U 22005Q   23042.70999791  .00036969  00000-0  23286-2 0  9993,2 51118  53.2145 285.8860 0000865  69.5994 290.5091 15.08842945 60600,6917.871,95.437,540.335,539.138,0.0
51118.0,STARLINK-3394,PAYLOAD,2023-02-12 08:56:15,15.08831381,0.000149,53.2154,282.911,102.8172,257.2986,0.00063361,9.808e-05,0.0,0 STARLINK-3394,1 51118U 22005Q   23043.37239877  .00009808  00000-0  63361-3 0  9990,2 51118  53.2154 282.9110 0001490 102.8172 257.2986 15.08831381 60706,6917.907,95.438,540.803,538.741,0.0
51118.0,STARLINK-3394,PAYLOAD,2023-02-13 08:47:02,15.08837916,9.4e-05,53.2143,278.4543,109.6929,250.4165,0.00032196,4.84e-05,0.0,0 STARLINK-3394,1 51118U 22005Q   23044.36600099  .00004840  00000-0  32196-3 0  9991,2 51118  53.2143 278.4543 0000940 109.6929 250.4165 15.08837916 60858,6917.887,95.438,540.402,539.101,0.0
51118.0,STARLINK-3394,PAYLOAD,2023-02-14 08:37:49,15.08843407,0.0001239,53.2146,273.9889,110.6142,249.4983,0.00026312,3.903e-05,0.0,0 STARLINK-3394,1 51118U 22005Q   23045.35960284  .00003903  00000-0  26312-3 0  9998,2 51118  53.2146 273.9889 0001239 110.6142 249.4983 15.08843407 59895,6917.87,95.437,540.592,538.878,0.0
51118.0,STARLINK-3394,PAYLOAD,2023-02-14 21:20:54,15.08840841,0.0001375,53.215,271.6103,104.6907,255.4237,0.00017485,2.496e-05,0.0,0 STARLINK-3394,1 51118U 22005Q   23045.88952490  .00002496  00000-0  17485-3 0  9993,2 51118  53.2150 271.6103 0001375 104.6907 255.4237 15.08840841 61089,6917.878,95.438,540.694,538.792,0.0
51118.0,STARLINK-3394,PAYLOAD,2023-02-15 08:28:36,15.08849827,0.0001452,53.2146,269.5284,105.9549,254.1603,0.00028745,4.291e-05,0.0,0 STARLINK-3394,1 51118U 22005Q   23046.35320121  .00004291  00000-0  28745-3 0  9992,2 51118  53.2146 269.5284 0001452 105.9549 254.1603 15.08849827 60043,6917.85,95.437,540.72,538.711,0.0
51118.0,STARLINK-3394,PAYLOAD,2023-02-15 18:00:54,15.08868918,0.0001298,53.2128,267.7456,97.0092,263.1048,0.00060783,9.407e-05,0.0,0 STARLINK-3394,1 51118U 22005Q   23046.75063119  .00009407  00000-0  60783-3 0  9999,2 51118  53.2128 267.7456 0001298  97.0092 263.1048 15.08868918 61211,6917.792,95.436,540.555,538.759,0.0
51118.0,STARLINK-3394,PAYLOAD,2023-02-15 21:11:40,15.08876995,0.0001189,53.2131,267.1507,98.4101,261.7026,0.00085334,0.00013333,0.0,0 STARLINK-3394,1 51118U 22005Q   23046.88310844  .00013333  00000-0  85334-3 0  9995,2 51118  53.2131 267.1507 0001189  98.4101 261.7026 15.08876995 60124,6917.767,95.435,540.455,538.81,0.0
51118.0,STARLINK-3394,PAYLOAD,2023-02-16 13:05:32,15.08836388,0.0001214,53.2128,264.1775,78.8316,281.2813,-0.00045866,-7.579e-05,0.0,0 STARLINK-3394,1 51118U 22005Q   23047.54551191 -.00007579  00000-0 -45866-3 0  9994,2 51118  53.2128 264.1775 0001214  78.8316 281.2813 15.08836388 61330,6917.891,95.438,540.596,538.917,0.0
51118.0,STARLINK-3394,PAYLOAD,2023-02-16 21:02:28,15.08823103,0.000127,53.2138,262.691,104.4566,255.6568,0.0012949,0.00020371,0.0,0 STARLINK-3394,1 51118U 22005Q   23047.87671424  .00020371  00000-0  12949-2 0  9990,2 51118  53.2138 262.6910 0001270 104.4566 255.6568 15.08823103 60275,6917.932,95.439,540.676,538.918,0.0
51118.0,STARLINK-3394,PAYLOAD,2023-02-17 17:42:29,15.08831354,0.0001193,53.2136,258.8255,103.0151,257.0975,0.00072496,0.00011266,0.0,0 STARLINK-3394,1 51118U 22005Q   23048.73784398  .00011266  00000-0  72496-3 0  9998,2 51118  53.2136 258.8255 0001193 103.0151 257.0975 15.08831354 61514,6917.907,95.438,540.597,538.947,0.0
51118.0,STARLINK-3394,PAYLOAD,2023-02-17 20:53:15,15.0883671,0.0001184,53.2141,258.2302,98.5272,261.5855,0.00078228,0.00012183,0.0,0 STARLINK-3394,1 51118U 22005Q   23048.87032375  .00012183  00000-0  78228-3 0  9992,2 51118  53.2141 258.2302 0001184  98.5272 261.5855 15.08836710 60426,6917.89,95.438,540.575,538.936,0.0
51118.0,STARLINK-3394,PAYLOAD,2023-02-18 06:25:34,15.08836647,0.0001163,53.2143,256.4461,96.4119,263.7005,0.00056368,8.694e-05,0.0,0 STARLINK-3394,1 51118U 22005Q   23049.26776513  .00008694  00000-0  56368-3 0  9998,2 51118  53.2143 256.4461 0001163  96.4119 263.7005 15.08836647 60484,6917.891,95.438,540.56,538.951,0.0
51118.0,STARLINK-3394,PAYLOAD,2023-02-18 15:57:53,15.08846386,0.0001455,53.2131,254.6619,89.0828,271.0331,0.00038286,5.812e-05,0.0,0 STARLINK-3394,1 51118U 22005Q   23049.66520612  .00005812  00000-0  38286-3 0  9997,2 51118  53.2131 254.6619 0001455  89.0828 271.0331 15.08846386 61650,6917.861,95.437,540.732,538.719,0.0
